NORAD_CAT_ID,OBJECT_NAME,OBJECT_TYPE,EPOCH,MEAN_MOTION,ECCENTRICITY,INCLINATION,RA_OF_ASC_NODE,ARG_OF_PERICENTER,MEAN_ANOMALY,BSTAR,MEAN_MOTION_DOT,MEAN_MOTION_DDOT,TLE_LINE0,TLE_LINE1,TLE_LINE2,SEMIMAJOR_AXIS,PERIOD,APOGEE,PERIGEE,DECAYED
51752.0,STARLINK-3511,PAYLOAD,2023-03-02 03:18:10,15.08828974,0.0001422,53.2143,223.1577,86.2182,273.8972,-2.59e-05,-7e-06,0.0,0 STARLINK-3511,1 51752U 22016AQ  23061.13761914 -.00000700  00000-0 -25900-4 0  9994,2 51752  53.2143 223.1577 0001422  86.2182 273.8972 15.08828974 58219,6917.914,95.438,540.763,538.795,0.0
51752.0,STARLINK-3511,PAYLOAD,2023-03-02 17:36:38,15.08850286,9.23e-05,53.2133,220.4817,90.2654,269.8444,0.00051131,7.861e-05,0.0,0 STARLINK-3511,1 51752U 22016AQ  23061.73377384  .00007861  00000-0  51131-3 0  9991,2 51752  53.2133 220.4817 0000923  90.2654 269.8444 15.08850286 58309,6917.849,95.437,540.352,539.075,0.0
51752.0,STARLINK-3511,PAYLOAD,2023-03-03 11:05:52,15.08848266,9.99e-05,53.2137,217.2108,83.9845,276.1261,0.0006858,0.00010646,0.0,0 STARLINK-3511,1 51752U 22016AQ  23062.46241347  .00010646  00000-0  68580-3 0  9992,2 51752  53.2137 217.2108 0000999  83.9845 276.1261 15.08848266 58419,6917.855,95.437,540.411,539.029,0.0
51752.0,STARLINK-3511,PAYLOAD,2023-03-03 19:02:47,15.08865796,0.0001059,53.2136,215.7239,84.7236,275.3877,0.00095617,0.00014973,0.0,0 STARLINK-3511,1 51752U 22016AQ  23062.79360814  .00014973  00000-0  95617-3 0  9997,2 51752  53.2136 215.7239 0001059  84.7236 275.3877 15.08865796 57350,6917.802,95.436,540.399,538.934,0.0
51752.0,STARLINK-3511,PAYLOAD,2023-03-04 02:59:43,15.08848574,0.0001544,53.2145,214.2362,80.9873,279.1294,0.00040831,6.218e-05,0.0,0 STARLINK-3511,1 51752U 22016AQ  23063.12481195  .00006218  00000-0  40831-3 0  9992,2 51752  53.2145 214.2362 0001544  80.9873 279.1294 15.08848574 58514,6917.854,95.437,540.787,538.651,0.0
51752.0,STARLINK-3511,PAYLOAD,2023-03-04 18:53:35,15.0885688,0.0001446,53.2139,211.2638,86.1083,274.0074,0.0011018,0.00017299,0.0,0 STARLINK-3511,1 51752U 22016AQ  23063.78721318  .00017299  00000-0  11018-2 0  9993,2 51752  53.2139 211.2638 0001446  86.1083 274.0074 15.08856880 57509,6917.829,95.436,540.694,538.693,0.0
51752.0,STARLINK-3511,PAYLOAD,2023-03-05 09:12:03,15.08839351,0.000119,53.2137,208.5863,100.2018,259.9108,0.001147,0.00018013,0.0,0 STARLINK-3511,1 51752U 22016AQ  23064.38337921  .00018013  00000-0  11470-2 0  9990,2 51752  53.2137 208.5863 0001190 100.2018 259.9108 15.08839351 58705,6917.882,95.438,540.571,538.924,0.0
51752.0,STARLINK-3511,PAYLOAD,2023-03-05 17:08:59,15.08864723,0.0001281,53.2137,207.1002,94.6744,265.4394,0.0024622,0.00039142,0.0,0 STARLINK-3511,1 51752U 22016AQ  23064.71457586  .00039142  00000-0  24622-2 0  9996,2 51752  53.2137 207.1002 0001281  94.6744 265.4394 15.08864723 58753,6917.805,95.436,540.556,538.784,0.0
51752.0,STARLINK-3511,PAYLOAD,2023-03-06 02:41:17,15.0886456,0.00015,53.2149,205.3151,80.9222,279.194,0.0015452,0.00024406,0.0,0 STARLINK-3511,1 51752U 22016AQ  23065.11201388  .00024406  00000-0  15452-2 0  9996,2 51752  53.2149 205.3151 0001500  80.9222 279.1940 15.08864560 58819,6917.805,95.436,540.708,538.633,0.0
51752.0,STARLINK-3511,PAYLOAD,2023-03-06 20:10:31,15.08885548,0.0001838,53.213,202.0482,63.4831,296.635,0.0011766,0.00018511,0.0,0 STARLINK-3511,1 51752U 22016AQ  23065.84063883  .00018511  00000-0  11766-2 0  9996,2 51752  53.2130 202.0482 0001838  63.4831 296.6350 15.08885548 57813,6917.741,95.435,540.878,538.335,0.0
51752.0,STARLINK-3511,PAYLOAD,2023-03-07 02:32:03,15.08840286,9.65e-05,53.2152,200.8554,85.0303,275.0799,-0.00080765,-0.00013118,0.0,0 STARLINK-3511,1 51752U 22016AQ  23066.10559486 -.00013118  00000-0 -80765-3 0  9991,2 51752  53.2152 200.8554 0000965  85.0303 275.0799 15.08840286 58962,6917.88,95.438,540.412,539.077,0.0
51752.0,STARLINK-3511,PAYLOAD,2023-03-07 16:50:32,15.08839603,0.0001963,53.2123,198.1811,83.2199,276.9016,0.0002386,3.511e-05,0.0,0 STARLINK-3511,1 51752U 22016AQ  23066.70176861  .00003511  00000-0  23860-3 0  9996,2 51752  53.2123 198.1811 0001963  83.2199 276.9016 15.08839603 57947,6917.882,95.438,541.105,538.389,0.0
51752.0,STARLINK-3511,PAYLOAD,2023-03-08 08:44:24,15.08838455,0.0002227,53.2116,195.2069,83.0128,277.1117,0.00068714,0.00010664,0.0,0 STARLINK-3511,1 51752U 22016AQ  23067.36417478  .00010664  00000-0  68714-3 0  9995,2 51752  53.2116 195.2069 0002227  83.0128 277.1117 15.08838455 59150,6917.885,95.438,541.291,538.209,0.0
51752.0,STARLINK-3511,PAYLOAD,2023-03-09 13:21:21,15.08840464,0.0001611,53.2137,189.8519,102.8275,257.2897,0.00042898,6.546e-05,0.0,0 STARLINK-3511,1 51752U 22016AQ  23068.55649965  .00006546  00000-0  42898-3 0  9994,2 51752  53.2137 189.8519 0001611 102.8275 257.2897 15.08840464 59338,6917.879,95.438,540.858,538.63,0.0
51752.0,STARLINK-3511,PAYLOAD,2023-03-10 11:36:45,15.08843872,0.0001385,53.2162,185.6929,103.8798,256.2348,0.00028885,4.313e-05,0.0,0 STARLINK-3511,1 51752U 22016AQ  23069.48385986  .00004313  00000-0  28885-3 0  9997,2 51752  53.2162 185.6929 0001385 103.8798 256.2348 15.08843872 59475,6917.869,95.437,540.692,538.775,0.0
51752.0,STARLINK-3511,PAYLOAD,2023-03-10 17:58:17,15.08862147,0.000118,53.2151,184.4998,101.0152,259.0973,0.00065285,0.00010124,0.0,0 STARLINK-3511,1 51752U 22016AQ  23069.74881217  .00010124  00000-0  65285-3 0  9996,2 51752  53.2151 184.4998 0001180 101.0152 259.0973 15.08862147 59519,6917.813,95.436,540.494,538.861,0.0
51752.0,STARLINK-3511,PAYLOAD,2023-03-11 00:19:50,15.08853576,0.0001202,53.2155,183.3075,79.5159,280.5968,0.00041538,6.331e-05,0.0,0 STARLINK-3511,1 51752U 22016AQ  23070.01377340  .00006331  00000-0  41538-3 0  9995,2 51752  53.2155 183.3075 0001202  79.5159 280.5968 15.08853576 59551,6917.839,95.437,540.535,538.872,0.0
51752.0,STARLINK-3511,PAYLOAD,2023-03-11 08:16:45,15.08841504,0.0001424,53.2176,181.8269,99.0299,261.0854,4.0726e-05,3.6e-06,0.0,0 STARLINK-3511,1 51752U 22016AQ  23070.34497660  .00000360  00000-0  40726-4 0  9994,2 51752  53.2176 181.8269 0001424  99.0299 261.0854 15.08841504 59602,6917.876,95.437,540.726,538.756,0.0
51752.0,STARLINK-3511,PAYLOAD,2023-03-11 14:38:17,15.08855667,9.9e-05,53.2148,180.6343,82.309,277.8015,0.00032435,4.88e-05,0.0,0 STARLINK-3511,1 51752U 22016AQ  23070.60992990  .00004880  00000-0  32435-3 0  9997,2 51752  53.2148 180.6343 0000990  82.3090 277.8015 15.08855667 59645,6917.833,95.437,540.382,539.013,0.0
51752.0,STARLINK-3511,PAYLOAD,2023-03-12 11:18:20,15.08824153,8.84e-05,53.2146,176.7692,107.2341,252.8748,-0.00017086,-3.005e-05,0.0,0 STARLINK-3511,1 51752U 22016AQ  23071.47106675 -.00003005  00000-0 -17086-3 0  9995,2 51752  53.2146 176.7692 0000884 107.2341 252.8748 15.08824153 59770,6917.929,95.439,540.405,539.182,0.0
51752.0,STARLINK-3511,PAYLOAD,2023-03-12 14:29:06,15.08832381,9.33e-05,53.2146,176.1733,119.6375,240.471,-0.00012801,-2.324e-05,0.0,0 STARLINK-3511,1 51752U 22016AQ  23071.60354402 -.00002324  00000-0 -12801-3 0  9996,2 51752  53.2146 176.1733 0000933 119.6375 240.4710 15.08832381 59795,6917.904,95.438,540.414,539.123,0.0
51752.0,STARLINK-3511,PAYLOAD,2023-03-13 12:44:30,15.08847971,0.0001004,53.2143,172.0125,81.2496,278.861,0.00057228,8.834e-05,0.0,0 STARLINK-3511,1 51752U 22016AQ  23072.53090858  .00008834  00000-0  57228-3 0  9993,2 51752  53.2143 172.0125 0001004  81.2496 278.8610 15.08847971 58828,6917.856,95.437,540.416,539.026,0.0
51752.0,STARLINK-3511,PAYLOAD,2023-03-14 12:35:16,15.08878924,0.0001107,53.2135,167.5514,91.0289,269.083,0.0010055,0.00015768,0.0,0 STARLINK-3511,1 51752U 22016AQ  23073.52449527  .00015768  00000-0  10055-2 0  9994,2 51752  53.2135 167.5514 0001107  91.0289 269.0830 15.08878924 58977,6917.761,95.435,540.392,538.861,0.0
51752.0,STARLINK-3511,PAYLOAD,2023-03-14 23:42:57,15.08869549,0.0001241,53.2143,165.4694,86.962,273.1514,0.00051732,7.961e-05,0.0,0 STARLINK-3511,1 51752U 22016AQ  23073.98816873  .00007961  00000-0  51732-3 0  9990,2 51752  53.2143 165.4694 0001241  86.9620 273.1514 15.08869549 60154,6917.79,95.436,540.514,538.797,0.0
51752.0,STARLINK-3511,PAYLOAD,2023-03-15 12:26:02,15.08858032,0.0001406,53.2148,163.091,103.8309,256.284,0.00033799,5.098e-05,0.0,0 STARLINK-3511,1 51752U 22016AQ  23074.51808713  .00005098  00000-0  33799-3 0  9996,2 51752  53.2148 163.0910 0001406 103.8309 256.2840 15.08858032 60238,6917.825,95.436,540.663,538.718,0.0
51752.0,STARLINK-3511,PAYLOAD,2023-03-16 10:41:27,15.08824892,0.0001172,53.2144,158.9276,99.4994,260.6131,-8.513e-05,-1.642e-05,0.0,0 STARLINK-3511,1 51752U 22016AQ  23075.44546128 -.00001642  00000-0 -85130-4 0  9998,2 51752  53.2144 158.9276 0001172  99.4994 260.6131 15.08824892 60376,6917.927,95.439,540.602,538.981,0.0
51752.0,STARLINK-3511,PAYLOAD,2023-03-16 17:03:00,15.08833506,0.0001057,53.2141,157.7381,89.3503,270.7611,-7.9363e-05,-1.55e-05,0.0,0 STARLINK-3511,1 51752U 22016AQ  23075.71042146 -.00001550  00000-0 -79363-4 0  9998,2 51752  53.2141 157.7381 0001057  89.3503 270.7611 15.08833506 59301,6917.9,95.438,540.496,539.034,0.0
51752.0,STARLINK-3511,PAYLOAD,2023-03-17 08:56:53,15.08809597,0.0001221,53.2147,154.7685,66.5301,293.582,-0.00015769,-2.794e-05,0.0,0 STARLINK-3511,1 51752U 22016AQ  23076.37284126 -.00002794  00000-0 -15769-3 0  9997,2 51752  53.2147 154.7685 0001221  66.5301 293.5820 15.08809597 60510,6917.973,95.439,540.683,538.994,0.0
51752.0,STARLINK-3511,PAYLOAD,2023-03-17 12:07:39,15.08819007,0.0001079,53.2147,154.1741,94.2496,265.8619,6.4436e-05,7.37e-06,0.0,0 STARLINK-3511,1 51752U 22016AQ  23076.50531988  .00000737  00000-0  64436-4 0  9992,2 51752  53.2147 154.1741 0001079  94.2496 265.8619 15.08819007 59424,6917.945,95.439,540.556,539.063,0.0
51752.0,STARLINK-3511,PAYLOAD,2023-03-17 21:39:58,15.08828606,0.0001455,53.216,152.3898,106.0555,254.0598,0.00024156,3.557e-05,0.0,0 STARLINK-3511,1 51752U 22016AQ  23076.90275911  .00003557  00000-0  24156-3 0  9994,2 51752  53.2160 152.3898 0001455 106.0555 254.0598 15.08828606 59485,6917.915,95.438,540.787,538.774,0.0
